[{"OBJECT_NAME":"STARLINK-11344 [DTC]","OBJECT_ID":"2024-195B","EPOCH":"2026-03-09T21:45:12.976416","MEAN_MOTION":15.69702277,"ECCENTRICITY":0.00014029,"INCLINATION":53.1617,"RA_OF_ASC_NODE":25.4885,"ARG_OF_PERICENTER":50.2119,"MEAN_ANOMALY":309.9022,"EPHEMERIS_TYPE":0,"CLASSIFICATION_TYPE":"U","NORAD_CAT_ID":61688,"ELEMENT_SET_NO":999,"REV_AT_EPOCH":7906,"BSTAR":-3.020444e-6,"MEAN_MOTION_DOT":-9.55e-6,"MEAN_MOTION_DDOT":0},{"OBJECT_NAME":"CZ-2C R\/B","OBJECT_ID":"2021-039E","EPOCH":"2026-03-09T09:27:45.017856","MEAN_MOTION":15.64132714,"ECCENTRICITY":0.00310654,"INCLINATION":34.9801,"RA_OF_ASC_NODE":125.6229,"ARG_OF_PERICENTER":235.3635,"MEAN_ANOMALY":124.4161,"EPHEMERIS_TYPE":0,"CLASSIFICATION_TYPE":"U","NORAD_CAT_ID":48427,"ELEMENT_SET_NO":999,"REV_AT_EPOCH":26989,"BSTAR":0.00058987326,"MEAN_MOTION_DOT":0.00059804,"MEAN_MOTION_DDOT":0}]
